*******************************************************************************
Ephemeris / WWW_USER Mon Jul 15 19:33:08 2024 Pasadena, USA      / Horizons    
*******************************************************************************
Target body name: (2015 BP519)                    {source: JPL#11}
Center body name: Earth (399)                     {source: DE441}
Center-site name: Gemini South Obs., Cerro Pachon
*******************************************************************************
Start time      : A.D. 2019-Jan-09 23:58:00.0000 UT      
Stop  time      : A.D. 2019-Jan-10 09:42:00.0000 UT      
Step-size       : 1 minutes
*******************************************************************************
Target pole/equ : undefined
Target radii    : undefined                                                    
Center geodetic : 289.2634, -30.2406227, 2.71233  {E-lon(deg),Lat(deg),Alt(km)}
Center cylindric: 289.2634,5517.21435,-3194.81213 {E-lon(deg),Dxy(km),Dz(km)}
Center pole/equ : ITRF93                          {East-longitude positive}
Center radii    : 6378.137, 6378.137, 6356.752 km {Equator_a, b, pole_c}       
Target primary  : Sun
Vis. interferer : MOON (R_eq= 1737.400) km        {source: DE441}
Rel. light bend : Sun                             {source: DE441}
Rel. lght bnd GM: 1.3271E+11 km^3/s^2                                          
Small-body perts: Yes                             {source: SB441-N16}
Atmos refraction: NO (AIRLESS)
RA format       : HMS
Time format     : CAL 
Calendar mode   : Mixed Julian/Gregorian
RTS-only print  : NO       
EOP file        : eop.240715.p241008                                           
EOP coverage    : DATA-BASED 1962-JAN-20 TO 2024-JUL-15. PREDICTS-> 2024-OCT-07
Units conversion: 1 au= 149597870.700 km, c= 299792.458 km/s, 1 day= 86400.0 s 
Table cut-offs 1: Elevation (-90.0deg=NO ),Airmass (>38.000=NO), Daylight (YES)
Table cut-offs 2: Solar elongation (  0.0,180.0=NO ),Local Hour Angle( 0.0=NO )
Table cut-offs 3: RA/DEC angular rate (     0.0=NO )                           
*******************************************************************************
Initial IAU76/J2000 heliocentric ecliptic osculating elements (au, days, deg.):
  EPOCH=  2459185.5 ! 2020-Dec-02.00 (TDB)         Residual RMS= .076636       
   EC= .9196800569382362   QR= 35.27062259520413   TP= 2473034.2681888649      
   OM= 135.0361763364557   W=  348.1354702472351   IN= 54.13300168900849       
  Equivalent ICRF heliocentric cartesian coordinates (au, au/d):
   X= 1.527332710437156E+01  Y= 4.057000090505051E+01  Z=-2.695001507835700E+01
  VX=-2.654302427537234E-03 VY= 4.512065776218028E-05 VZ= 1.968031006040699E-03
Asteroid physical parameters (km, seconds, rotational period in hours):        
   GM= n.a.                RAD= n.a.               ROTPER= n.a.                
   H= 4.34                 G= .150                 B-V= n.a.                   
                           ALBEDO= n.a.            STYP= n.a.                  
*******************************************************************************
 Date__(UT)__HR:MN     R.A._________(ICRF)_________DEC
******************************************************
$$SOE
 2019-Jan-10 02:01  m  04 25 08.237446 -33 29 22.67626
 2019-Jan-10 02:02  m  04 25 08.235067 -33 29 22.65059
 2019-Jan-10 02:03  m  04 25 08.232688 -33 29 22.62491
 2019-Jan-10 02:04  m  04 25 08.230309 -33 29 22.59923
 2019-Jan-10 02:05  m  04 25 08.227930 -33 29 22.57355
 2019-Jan-10 02:06  m  04 25 08.225551 -33 29 22.54786
 2019-Jan-10 02:07  m  04 25 08.223172 -33 29 22.52218
 2019-Jan-10 02:08  m  04 25 08.220793 -33 29 22.49649
 2019-Jan-10 02:09  m  04 25 08.218415 -33 29 22.47080
 2019-Jan-10 02:10  m  04 25 08.216036 -33 29 22.44511
 2019-Jan-10 02:11  m  04 25 08.213657 -33 29 22.41941
 2019-Jan-10 02:12  m  04 25 08.211279 -33 29 22.39372
 2019-Jan-10 02:13  m  04 25 08.208900 -33 29 22.36802
 2019-Jan-10 02:14  m  04 25 08.206522 -33 29 22.34232
 2019-Jan-10 02:15  m  04 25 08.204143 -33 29 22.31662
 2019-Jan-10 02:16  m  04 25 08.201765 -33 29 22.29092
 2019-Jan-10 02:17  m  04 25 08.199387 -33 29 22.26521
 2019-Jan-10 02:18  m  04 25 08.197008 -33 29 22.23950
 2019-Jan-10 02:19  m  04 25 08.194630 -33 29 22.21380
 2019-Jan-10 02:20  m  04 25 08.192252 -33 29 22.18808
 2019-Jan-10 02:21  m  04 25 08.189874 -33 29 22.16237
 2019-Jan-10 02:22  m  04 25 08.187496 -33 29 22.13666
 2019-Jan-10 02:23  m  04 25 08.185118 -33 29 22.11094
 2019-Jan-10 02:24  m  04 25 08.182740 -33 29 22.08522
 2019-Jan-10 02:25  m  04 25 08.180362 -33 29 22.05950
 2019-Jan-10 02:26  m  04 25 08.177985 -33 29 22.03378
 2019-Jan-10 02:27  m  04 25 08.175607 -33 29 22.00805
 2019-Jan-10 02:28  m  04 25 08.173229 -33 29 21.98233
 2019-Jan-10 02:29  m  04 25 08.170852 -33 29 21.95660
 2019-Jan-10 02:30  m  04 25 08.168474 -33 29 21.93087
 2019-Jan-10 02:31     04 25 08.166097 -33 29 21.90513
 2019-Jan-10 02:32     04 25 08.163719 -33 29 21.87940
 2019-Jan-10 02:33     04 25 08.161342 -33 29 21.85366
 2019-Jan-10 02:34     04 25 08.158965 -33 29 21.82793
 2019-Jan-10 02:35     04 25 08.156588 -33 29 21.80219
 2019-Jan-10 02:36     04 25 08.154211 -33 29 21.77644
 2019-Jan-10 02:37     04 25 08.151834 -33 29 21.75070
 2019-Jan-10 02:38     04 25 08.149457 -33 29 21.72495
 2019-Jan-10 02:39     04 25 08.147080 -33 29 21.69921
 2019-Jan-10 02:40     04 25 08.144703 -33 29 21.67346
 2019-Jan-10 02:41     04 25 08.142326 -33 29 21.64771
 2019-Jan-10 02:42     04 25 08.139950 -33 29 21.62195
 2019-Jan-10 02:43     04 25 08.137573 -33 29 21.59620
 2019-Jan-10 02:44     04 25 08.135197 -33 29 21.57044
 2019-Jan-10 02:45     04 25 08.132820 -33 29 21.54468
 2019-Jan-10 02:46     04 25 08.130444 -33 29 21.51892
 2019-Jan-10 02:47     04 25 08.128068 -33 29 21.49316
 2019-Jan-10 02:48     04 25 08.125692 -33 29 21.46739
 2019-Jan-10 02:49     04 25 08.123316 -33 29 21.44163
 2019-Jan-10 02:50     04 25 08.120940 -33 29 21.41586
 2019-Jan-10 02:51     04 25 08.118564 -33 29 21.39009
 2019-Jan-10 02:52     04 25 08.116188 -33 29 21.36431
 2019-Jan-10 02:53     04 25 08.113812 -33 29 21.33854
 2019-Jan-10 02:54     04 25 08.111437 -33 29 21.31276
 2019-Jan-10 02:55     04 25 08.109061 -33 29 21.28699
 2019-Jan-10 02:56     04 25 08.106686 -33 29 21.26121
 2019-Jan-10 02:57     04 25 08.104311 -33 29 21.23543
 2019-Jan-10 02:58     04 25 08.101935 -33 29 21.20964
 2019-Jan-10 02:59     04 25 08.099560 -33 29 21.18386
 2019-Jan-10 03:00     04 25 08.097185 -33 29 21.15807
 2019-Jan-10 03:01     04 25 08.094810 -33 29 21.13228
 2019-Jan-10 03:02     04 25 08.092436 -33 29 21.10649
 2019-Jan-10 03:03     04 25 08.090061 -33 29 21.08070
 2019-Jan-10 03:04     04 25 08.087686 -33 29 21.05490
 2019-Jan-10 03:05     04 25 08.085312 -33 29 21.02910
 2019-Jan-10 03:06     04 25 08.082937 -33 29 21.00331
 2019-Jan-10 03:07     04 25 08.080563 -33 29 20.97750
 2019-Jan-10 03:08     04 25 08.078189 -33 29 20.95170
 2019-Jan-10 03:09     04 25 08.075815 -33 29 20.92590
 2019-Jan-10 03:10     04 25 08.073441 -33 29 20.90009
 2019-Jan-10 03:11     04 25 08.071067 -33 29 20.87428
 2019-Jan-10 03:12     04 25 08.068693 -33 29 20.84847
 2019-Jan-10 03:13     04 25 08.066319 -33 29 20.82266
 2019-Jan-10 03:14     04 25 08.063946 -33 29 20.79685
 2019-Jan-10 03:15     04 25 08.061572 -33 29 20.77103
 2019-Jan-10 03:16     04 25 08.059199 -33 29 20.74522
 2019-Jan-10 03:17     04 25 08.056825 -33 29 20.71940
 2019-Jan-10 03:18     04 25 08.054452 -33 29 20.69358
 2019-Jan-10 03:19     04 25 08.052079 -33 29 20.66775
 2019-Jan-10 03:20     04 25 08.049706 -33 29 20.64193
 2019-Jan-10 03:21     04 25 08.047334 -33 29 20.61610
 2019-Jan-10 03:22     04 25 08.044961 -33 29 20.59028
 2019-Jan-10 03:23     04 25 08.042588 -33 29 20.56445
 2019-Jan-10 03:24     04 25 08.040216 -33 29 20.53861
 2019-Jan-10 03:25     04 25 08.037844 -33 29 20.51278
 2019-Jan-10 03:26     04 25 08.035471 -33 29 20.48695
 2019-Jan-10 03:27     04 25 08.033099 -33 29 20.46111
 2019-Jan-10 03:28     04 25 08.030727 -33 29 20.43527
 2019-Jan-10 03:29     04 25 08.028356 -33 29 20.40943
 2019-Jan-10 03:30     04 25 08.025984 -33 29 20.38359
 2019-Jan-10 03:31     04 25 08.023612 -33 29 20.35774
 2019-Jan-10 03:32     04 25 08.021241 -33 29 20.33190
 2019-Jan-10 03:33     04 25 08.018870 -33 29 20.30605
 2019-Jan-10 03:34     04 25 08.016498 -33 29 20.28020
 2019-Jan-10 03:35     04 25 08.014127 -33 29 20.25435
 2019-Jan-10 03:36     04 25 08.011756 -33 29 20.22849
 2019-Jan-10 03:37     04 25 08.009386 -33 29 20.20264
 2019-Jan-10 03:38     04 25 08.007015 -33 29 20.17678
 2019-Jan-10 03:39     04 25 08.004644 -33 29 20.15092
 2019-Jan-10 03:40     04 25 08.002274 -33 29 20.12506
 2019-Jan-10 03:41     04 25 07.999904 -33 29 20.09920
 2019-Jan-10 03:42     04 25 07.997533 -33 29 20.07334
 2019-Jan-10 03:43     04 25 07.995163 -33 29 20.04747
 2019-Jan-10 03:44     04 25 07.992794 -33 29 20.02160
 2019-Jan-10 03:45     04 25 07.990424 -33 29 19.99573
 2019-Jan-10 03:46     04 25 07.988054 -33 29 19.96986
 2019-Jan-10 03:47     04 25 07.985685 -33 29 19.94399
 2019-Jan-10 03:48     04 25 07.983315 -33 29 19.91811
 2019-Jan-10 03:49     04 25 07.980946 -33 29 19.89224
 2019-Jan-10 03:50     04 25 07.978577 -33 29 19.86636
 2019-Jan-10 03:51     04 25 07.976208 -33 29 19.84048
 2019-Jan-10 03:52     04 25 07.973840 -33 29 19.81460
 2019-Jan-10 03:53     04 25 07.971471 -33 29 19.78872
 2019-Jan-10 03:54     04 25 07.969103 -33 29 19.76283
 2019-Jan-10 03:55     04 25 07.966734 -33 29 19.73694
 2019-Jan-10 03:56     04 25 07.964366 -33 29 19.71105
 2019-Jan-10 03:57     04 25 07.961998 -33 29 19.68516
 2019-Jan-10 03:58     04 25 07.959630 -33 29 19.65927
 2019-Jan-10 03:59     04 25 07.957262 -33 29 19.63338
 2019-Jan-10 04:00     04 25 07.954895 -33 29 19.60748
 2019-Jan-10 04:01     04 25 07.952527 -33 29 19.58159
 2019-Jan-10 04:02     04 25 07.950160 -33 29 19.55569
 2019-Jan-10 04:03     04 25 07.947793 -33 29 19.52979
